[{"OBJECT_NAME":"GAOFEN-14 01","OBJECT_ID":"2020-092A","EPOCH":"2026-03-09T23:18:15.156000","MEAN_MOTION":15.25725011,"ECCENTRICITY":0.0008015,"INCLINATION":97.4817,"RA_OF_ASC_NODE":139.2507,"ARG_OF_PERICENTER":138.8844,"MEAN_ANOMALY":221.2999,"EPHEMERIS_TYPE":0,"CLASSIFICATION_TYPE":"U","NORAD_CAT_ID":47231,"ELEMENT_SET_NO":999,"REV_AT_EPOCH":29270,"BSTAR":0.00022250672,"MEAN_MOTION_DOT":5.605e-5,"MEAN_MOTION_DDOT":0},{"OBJECT_NAME":"STARLINK-33721","OBJECT_ID":"2025-070W","EPOCH":"2026-03-09T22:02:53.748096","MEAN_MOTION":15.27605372,"ECCENTRICITY":0.00052195,"INCLINATION":43.0036,"RA_OF_ASC_NODE":254.8336,"ARG_OF_PERICENTER":271.6402,"MEAN_ANOMALY":88.3852,"EPHEMERIS_TYPE":0,"CLASSIFICATION_TYPE":"U","NORAD_CAT_ID":63480,"ELEMENT_SET_NO":999,"REV_AT_EPOCH":5305,"BSTAR":0.0014101908,"MEAN_MOTION_DOT":0.00038789,"MEAN_MOTION_DDOT":0}]
